JILIN-1 GAOFEN 3A       
1 44312U 19032C   26068.74542089  .00016264  00000+0  55381-3 0  9993
2 44312  44.9746 183.2861 0002618 111.2900 248.8263 15.30271310372592
STARLINK-2742           
1 48688U 21044BC  26068.26436126 -.00001716  00000+0 -47126-4 0  9997
2 48688  53.1597  66.9855 0002080  56.0767 304.0431 15.29359454264437
