[{"OBJECT_NAME":"JILIN-1 GAOFEN 3A","OBJECT_ID":"2019-032C","EPOCH":"2026-03-09T17:53:24.364896","MEAN_MOTION":15.3027131,"ECCENTRICITY":0.00026181,"INCLINATION":44.9746,"RA_OF_ASC_NODE":183.2861,"ARG_OF_PERICENTER":111.29,"MEAN_ANOMALY":248.8263,"EPHEMERIS_TYPE":0,"CLASSIFICATION_TYPE":"U","NORAD_CAT_ID":44312,"ELEMENT_SET_NO":999,"REV_AT_EPOCH":37259,"BSTAR":0.00055381133,"MEAN_MOTION_DOT":0.00016264,"MEAN_MOTION_DDOT":0},{"OBJECT_NAME":"STARLINK-2742","OBJECT_ID":"2021-044BC","EPOCH":"2026-03-09T06:20:40.812864","MEAN_MOTION":15.29359454,"ECCENTRICITY":0.00020807,"INCLINATION":53.1597,"RA_OF_ASC_NODE":66.9855,"ARG_OF_PERICENTER":56.0767,"MEAN_ANOMALY":304.0431,"EPHEMERIS_TYPE":0,"CLASSIFICATION_TYPE":"U","NORAD_CAT_ID":48688,"ELEMENT_SET_NO":999,"REV_AT_EPOCH":26443,"BSTAR":-4.7125579e-5,"MEAN_MOTION_DOT":-1.716e-5,"MEAN_MOTION_DDOT":0}]
